[{"OBJECT_NAME":"STARLINK-30069","OBJECT_ID":"2023-079M","EPOCH":"2026-03-08T11:34:15.947328","MEAN_MOTION":15.26726881,"ECCENTRICITY":4.69e-5,"INCLINATION":42.9986,"RA_OF_ASC_NODE":110.4464,"ARG_OF_PERICENTER":272.6695,"MEAN_ANOMALY":87.4103,"EPHEMERIS_TYPE":0,"CLASSIFICATION_TYPE":"U","NORAD_CAT_ID":56834,"ELEMENT_SET_NO":999,"REV_AT_EPOCH":15274,"BSTAR":-8.0472e-5,"MEAN_MOTION_DOT":-2.416e-5,"MEAN_MOTION_DDOT":0},{"OBJECT_NAME":"STARLINK-36047","OBJECT_ID":"2025-278E","EPOCH":"2026-03-09T12:45:01.080864","MEAN_MOTION":15.27601267,"ECCENTRICITY":0.00014602,"INCLINATION":43.0018,"RA_OF_ASC_NODE":115.3715,"ARG_OF_PERICENTER":254.6191,"MEAN_ANOMALY":105.4499,"EPHEMERIS_TYPE":0,"CLASSIFICATION_TYPE":"U","NORAD_CAT_ID":66795,"ELEMENT_SET_NO":999,"REV_AT_EPOCH":1518,"BSTAR":0.00059027417,"MEAN_MOTION_DOT":0.00016027,"MEAN_MOTION_DDOT":0}]
